CCSDS_OMM_VERS = 2.0
CREATION_DATE  = 
ORIGINATOR     = 

OBJECT_NAME    = STARLINK-35522
OBJECT_ID      = 2025-253Y
CENTER_NAME    = EARTH
REF_FRAME      = TEME
TIME_SYSTEM    = UTC
MEAN_ELEMENT_THEORY = SGP/SGP4

EPOCH          = 2025-11-21T04:00:01.998720
MEAN_MOTION    = 15.75261749
ECCENTRICITY   = .0001589
INCLINATION    = 42.9998
RA_OF_ASC_NODE = 111.5274
ARG_OF_PERICENTER = 270.6831
MEAN_ANOMALY   = 199.1664

EPHEMERIS_TYPE = 0
CLASSIFICATION_TYPE = U
NORAD_CAT_ID   = 66341
ELEMENT_SET_NO = 999
REV_AT_EPOCH   = 355
BSTAR          = -.36961E-2
MEAN_MOTION_DOT = -.538699E-2
MEAN_MOTION_DDOT = 0

CCSDS_OMM_VERS = 2.0
CREATION_DATE  = 
ORIGINATOR     = 

OBJECT_NAME    = STARLINK-35535
OBJECT_ID      = 2025-253Z
CENTER_NAME    = EARTH
REF_FRAME      = TEME
TIME_SYSTEM    = UTC
MEAN_ELEMENT_THEORY = SGP/SGP4

EPOCH          = 2025-11-21T04:00:01.998720
MEAN_MOTION    = 15.75253779
ECCENTRICITY   = .0001518
INCLINATION    = 42.9998
RA_OF_ASC_NODE = 111.4815
ARG_OF_PERICENTER = 263.2613
MEAN_ANOMALY   = 223.8402

EPHEMERIS_TYPE = 0
CLASSIFICATION_TYPE = U
NORAD_CAT_ID   = 66342
ELEMENT_SET_NO = 999
REV_AT_EPOCH   = 346
BSTAR          = -.36131E-2
MEAN_MOTION_DOT = -.527133E-2
MEAN_MOTION_DDOT = 0

CCSDS_OMM_VERS = 2.0
CREATION_DATE  = 
ORIGINATOR     = 

OBJECT_NAME    = STARLINK-35467
OBJECT_ID      = 2025-253AA
CENTER_NAME    = EARTH
REF_FRAME      = TEME
TIME_SYSTEM    = UTC
MEAN_ELEMENT_THEORY = SGP/SGP4

EPOCH          = 2025-11-21T04:00:01.998720
MEAN_MOTION    = 15.75253978
ECCENTRICITY   = .0001509
INCLINATION    = 42.9991
RA_OF_ASC_NODE = 111.4857
ARG_OF_PERICENTER = 260.3796
MEAN_ANOMALY   = 224.8051

EPHEMERIS_TYPE = 0
CLASSIFICATION_TYPE = U
NORAD_CAT_ID   = 66343
ELEMENT_SET_NO = 999
REV_AT_EPOCH   = 346
BSTAR          = -.36201E-2
MEAN_MOTION_DOT = -.528095E-2
MEAN_MOTION_DDOT = 0

CCSDS_OMM_VERS = 2.0
CREATION_DATE  = 
ORIGINATOR     = 

OBJECT_NAME    = STARLINK-35511
OBJECT_ID      = 2025-253AB
CENTER_NAME    = EARTH
REF_FRAME      = TEME
TIME_SYSTEM    = UTC
MEAN_ELEMENT_THEORY = SGP/SGP4

EPOCH          = 2025-11-21T04:00:01.998720
MEAN_MOTION    = 15.75242527
ECCENTRICITY   = .0001453
INCLINATION    = 42.9993
RA_OF_ASC_NODE = 111.4629
ARG_OF_PERICENTER = 258.4747
MEAN_ANOMALY   = 236.3113

EPHEMERIS_TYPE = 0
CLASSIFICATION_TYPE = U
NORAD_CAT_ID   = 66344
ELEMENT_SET_NO = 999
REV_AT_EPOCH   = 346
BSTAR          = -.35895E-2
MEAN_MOTION_DOT = -.52364E-2
MEAN_MOTION_DDOT = 0

CCSDS_OMM_VERS = 2.0
CREATION_DATE  = 
ORIGINATOR     = 

OBJECT_NAME    = STARLINK-35440
OBJECT_ID      = 2025-253AC
CENTER_NAME    = EARTH
REF_FRAME      = TEME
TIME_SYSTEM    = UTC
MEAN_ELEMENT_THEORY = SGP/SGP4

EPOCH          = 2025-11-21T04:00:01.998720
MEAN_MOTION    = 15.75264199
ECCENTRICITY   = .0001445
INCLINATION    = 42.9995
RA_OF_ASC_NODE = 111.4695
ARG_OF_PERICENTER = 267.8851
MEAN_ANOMALY   = 223.0506

EPHEMERIS_TYPE = 0
CLASSIFICATION_TYPE = U
NORAD_CAT_ID   = 66345
ELEMENT_SET_NO = 999
REV_AT_EPOCH   = 346
BSTAR          = -.37592E-2
MEAN_MOTION_DOT = -.547367E-2
MEAN_MOTION_DDOT = 0

CCSDS_OMM_VERS = 2.0
CREATION_DATE  = 
ORIGINATOR     = 

OBJECT_NAME    = STARLINK-35482
OBJECT_ID      = 2025-253AD
CENTER_NAME    = EARTH
REF_FRAME      = TEME
TIME_SYSTEM    = UTC
MEAN_ELEMENT_THEORY = SGP/SGP4

EPOCH          = 2025-11-21T04:00:01.998720
MEAN_MOTION    = 15.75270125
ECCENTRICITY   = .0001514
INCLINATION    = 42.9990
RA_OF_ASC_NODE = 111.4661
ARG_OF_PERICENTER = 272.2930
MEAN_ANOMALY   = 220.5584

EPHEMERIS_TYPE = 0
CLASSIFICATION_TYPE = U
NORAD_CAT_ID   = 66346
ELEMENT_SET_NO = 999
REV_AT_EPOCH   = 355
BSTAR          = -.38232E-2
MEAN_MOTION_DOT = -.556261E-2
MEAN_MOTION_DDOT = 0

CCSDS_OMM_VERS = 2.0
CREATION_DATE  = 
ORIGINATOR     = 

OBJECT_NAME    = STARLINK-35438
OBJECT_ID      = 2025-253AE
CENTER_NAME    = EARTH
REF_FRAME      = TEME
TIME_SYSTEM    = UTC
MEAN_ELEMENT_THEORY = SGP/SGP4

EPOCH          = 2025-11-21T04:00:01.998720
MEAN_MOTION    = 15.75197176
ECCENTRICITY   = .0001709
INCLINATION    = 42.9990
RA_OF_ASC_NODE = 111.4564
ARG_OF_PERICENTER = 264.4226
MEAN_ANOMALY   = 232.2608

EPHEMERIS_TYPE = 0
CLASSIFICATION_TYPE = U
NORAD_CAT_ID   = 66347
ELEMENT_SET_NO = 999
REV_AT_EPOCH   = 346
BSTAR          = -.30453E-2
MEAN_MOTION_DOT = -.44743E-2
MEAN_MOTION_DDOT = 0

CCSDS_OMM_VERS = 2.0
CREATION_DATE  = 
ORIGINATOR     = 

OBJECT_NAME    = STARLINK-35849
OBJECT_ID      = 2025-254A
CENTER_NAME    = EARTH
REF_FRAME      = TEME
TIME_SYSTEM    = UTC
MEAN_ELEMENT_THEORY = SGP/SGP4

EPOCH          = 2025-11-21T04:00:01.998720
MEAN_MOTION    = 15.75237449
ECCENTRICITY   = .0001175
INCLINATION    = 53.1589
RA_OF_ASC_NODE = 22.0356
ARG_OF_PERICENTER = 82.8101
MEAN_ANOMALY   = 280.7573

EPHEMERIS_TYPE = 0
CLASSIFICATION_TYPE = U
NORAD_CAT_ID   = 66348
ELEMENT_SET_NO = 999
REV_AT_EPOCH   = 345
BSTAR          = -.91974E-2
MEAN_MOTION_DOT = -.1266699E-1
MEAN_MOTION_DDOT = 0

CCSDS_OMM_VERS = 2.0
CREATION_DATE  = 
ORIGINATOR     = 

OBJECT_NAME    = STARLINK-35848
OBJECT_ID      = 2025-254B
CENTER_NAME    = EARTH
REF_FRAME      = TEME
TIME_SYSTEM    = UTC
MEAN_ELEMENT_THEORY = SGP/SGP4

EPOCH          = 2025-11-21T04:00:01.998720
MEAN_MOTION    = 15.75230099
ECCENTRICITY   = .0000871
INCLINATION    = 53.1591
RA_OF_ASC_NODE = 22.0312
ARG_OF_PERICENTER = 87.5154
MEAN_ANOMALY   = 277.9747

EPHEMERIS_TYPE = 0
CLASSIFICATION_TYPE = U
NORAD_CAT_ID   = 66349
ELEMENT_SET_NO = 999
REV_AT_EPOCH   = 345
BSTAR          = -.91473E-2
MEAN_MOTION_DOT = -.1259985E-1
MEAN_MOTION_DDOT = 0

CCSDS_OMM_VERS = 2.0
CREATION_DATE  = 
ORIGINATOR     = 

OBJECT_NAME    = STARLINK-35829
OBJECT_ID      = 2025-254C
CENTER_NAME    = EARTH
REF_FRAME      = TEME
TIME_SYSTEM    = UTC
MEAN_ELEMENT_THEORY = SGP/SGP4

EPOCH          = 2025-11-21T04:00:01.998720
MEAN_MOTION    = 15.75005034
ECCENTRICITY   = .0000824
INCLINATION    = 53.1590
RA_OF_ASC_NODE = 22.0264
ARG_OF_PERICENTER = 77.4101
MEAN_ANOMALY   = 290.1903

EPHEMERIS_TYPE = 0
CLASSIFICATION_TYPE = U
NORAD_CAT_ID   = 66350
ELEMENT_SET_NO = 999
REV_AT_EPOCH   = 345
BSTAR          = -.78868E-2
MEAN_MOTION_DOT = -.107517E-1
MEAN_MOTION_DDOT = 0

CCSDS_OMM_VERS = 2.0
CREATION_DATE  = 
ORIGINATOR     = 

OBJECT_NAME    = STARLINK-35828
OBJECT_ID      = 2025-254D
CENTER_NAME    = EARTH
REF_FRAME      = TEME
TIME_SYSTEM    = UTC
MEAN_ELEMENT_THEORY = SGP/SGP4

EPOCH          = 2025-11-21T04:00:01.998720
MEAN_MOTION    = 15.74854281
ECCENTRICITY   = .0000859
INCLINATION    = 53.1589
RA_OF_ASC_NODE = 22.0219
ARG_OF_PERICENTER = 101.7478
MEAN_ANOMALY   = 267.8883

EPHEMERIS_TYPE = 0
CLASSIFICATION_TYPE = U
NORAD_CAT_ID   = 66351
ELEMENT_SET_NO = 999
REV_AT_EPOCH   = 342
BSTAR          = -.66423E-2
MEAN_MOTION_DOT = -.900975E-2
MEAN_MOTION_DDOT = 0

CCSDS_OMM_VERS = 2.0
CREATION_DATE  = 
ORIGINATOR     = 

OBJECT_NAME    = STARLINK-35850
OBJECT_ID      = 2025-254E
CENTER_NAME    = EARTH
REF_FRAME      = TEME
TIME_SYSTEM    = UTC
MEAN_ELEMENT_THEORY = SGP/SGP4

EPOCH          = 2025-11-21T04:00:01.998720
MEAN_MOTION    = 15.74762790
ECCENTRICITY   = .0001023
INCLINATION    = 53.1591
RA_OF_ASC_NODE = 22.0179
ARG_OF_PERICENTER = 75.0472
MEAN_ANOMALY   = 296.5777

EPHEMERIS_TYPE = 0
CLASSIFICATION_TYPE = U
NORAD_CAT_ID   = 66352
ELEMENT_SET_NO = 999
REV_AT_EPOCH   = 340
BSTAR          = -.62823E-2
MEAN_MOTION_DOT = -.853698E-2
MEAN_MOTION_DDOT = 0

