STARLINK-35522          
1 66341U 25253Y   25325.16668980 -.00538699  00000+0 -36961-2 0  9996
2 66341  42.9998 111.5274 0001589 270.6831 199.1664 15.75261749  3550
STARLINK-35535          
1 66342U 25253Z   25325.16668980 -.00527133  00000+0 -36131-2 0  9997
2 66342  42.9998 111.4815 0001518 263.2613 223.8402 15.75253779  3468
STARLINK-35467          
1 66343U 25253AA  25325.16668980 -.00528095  00000+0 -36201-2 0  9994
2 66343  42.9991 111.4857 0001509 260.3796 224.8051 15.75253978  3460
STARLINK-35511          
1 66344U 25253AB  25325.16668980 -.00523640  00000+0 -35895-2 0  9994
2 66344  42.9993 111.4629 0001453 258.4747 236.3113 15.75242527  3467
STARLINK-35440          
1 66345U 25253AC  25325.16668980 -.00547367  00000+0 -37592-2 0  9993
2 66345  42.9995 111.4695 0001445 267.8851 223.0506 15.75264199  3462
STARLINK-35482          
1 66346U 25253AD  25325.16668980 -.00556261  00000+0 -38232-2 0  9999
2 66346  42.9990 111.4661 0001514 272.2930 220.5584 15.75270125  3550
STARLINK-35438          
1 66347U 25253AE  25325.16668980 -.00447430  00000+0 -30453-2 0  9994
2 66347  42.9990 111.4564 0001709 264.4226 232.2608 15.75197176  3461
STARLINK-35849          
1 66348U 25254A   25325.16668980 -.01266699  00000+0 -91974-2 0  9998
2 66348  53.1589  22.0356 0001175  82.8101 280.7573 15.75237449  3453
STARLINK-35848          
1 66349U 25254B   25325.16668980 -.01259985  00000+0 -91473-2 0  9993
2 66349  53.1591  22.0312 0000871  87.5154 277.9747 15.75230099  3456
STARLINK-35829          
1 66350U 25254C   25325.16668980 -.01075170  00000+0 -78868-2 0  9990
2 66350  53.1590  22.0264 0000824  77.4101 290.1903 15.75005034  3451
STARLINK-35828          
1 66351U 25254D   25325.16668980 -.00900975  00000+0 -66423-2 0  9994
2 66351  53.1589  22.0219 0000859 101.7478 267.8883 15.74854281  3426
STARLINK-35850          
1 66352U 25254E   25325.16668980 -.00853698  00000+0 -62823-2 0  9994
2 66352  53.1591  22.0179 0001023  75.0472 296.5777 15.74762790  3408
